OBJECT_NAME,OBJECT_ID,EPOCH,MEAN_MOTION,ECCENTRICITY,INCLINATION,RA_OF_ASC_NODE,ARG_OF_PERICENTER,MEAN_ANOMALY,EPHEMERIS_TYPE,CLASSIFICATION_TYPE,NORAD_CAT_ID,ELEMENT_SET_NO,REV_AT_EPOCH,BSTAR,MEAN_MOTION_DOT,MEAN_MOTION_DDOT
GAOFEN-11 01,2018-063A,2026-07-08T14:15:34.946208,15.55927931,.00023894,97.1276,256.4206,231.5701,128.5341,0,U,43585,999,44367,.18718453E-3,.12889E-3,0
ICESAT-2,2018-070A,2026-07-08T13:36:13.413024,15.28271939,.00059065,92.0084,296.7565,79.3539,280.8375,0,U,43613,999,43572,.25062714E-3,.6904E-4,0
HYSIS,2018-096A,2026-07-08T12:39:58.785408,14.78661597,.00018463,97.9826,256.1080,86.6964,273.4459,0,U,43719,999,41057,.85873928E-4,.577E-5,0
KAZSTSAT,2018-099AB,2026-07-08T07:29:31.081920,14.99942577,.00078473,97.4314,220.2864,7.0767,353.0566,0,U,43783,999,41447,.11393628E-3,.1359E-4,0
SAUDISAT 5A,2018-102A,2026-07-08T13:50:49.471872,15.28274477,.00109381,97.3057,250.7470,64.3255,295.9114,0,U,43831,999,41894,.13232148E-3,.3576E-4,0
SAUDISAT 5B,2018-102C,2026-07-08T14:12:53.778240,15.28521389,.00116861,97.3165,253.8706,65.8144,294.4316,0,U,43833,999,41906,.13172318E-3,.3588E-4,0
GAOFEN-10R,2019-066A,2026-07-08T14:37:24.627648,14.83047943,.00071194,98.0505,143.3452,70.0979,290.1001,0,U,44622,999,36555,.1126896E-3,.862E-5,0
CARTOSAT-3,2019-081A,2026-07-08T13:30:39.330144,15.19295264,.00133768,97.4294,251.0848,81.6250,278.6501,0,U,44804,999,36671,.12653238E-3,.2607E-4,0
GAOFEN-12 01,2019-082A,2026-07-08T13:44:28.135968,14.80476009,.00013313,97.8105,195.3878,52.3715,307.7618,0,U,44819,999,35725,.41290092E-4,.265E-5,0
CSG-1,2019-092A,2026-07-08T12:28:22.888704,14.82147541,.00014904,97.8893,12.8137,91.0502,269.0882,0,U,44873,999,35463,.3910538E-4,.259E-5,0
NEMO-HD,2020-061F,2026-07-08T13:41:25.878624,15.45039496,.00011755,97.1907,251.3119,80.4573,279.6809,0,U,46277,999,32528,.15109188E-3,.7045E-4,0
SENTINEL-6A,2020-086A,2026-07-08T11:28:44.239584,12.80930103,.00078148,66.0415,90.8320,270.0000,90.0119,0,U,46984,999,26305,-.18874561E-4,-.65E-6,0
CAS500-1,2021-022A,2026-07-08T14:06:12.072672,15.20133614,.00044611,97.3874,84.4053,191.6522,168.4611,0,U,47932,999,29401,.2015074E-3,.429E-4,0
GAOFEN-12 02,2021-026A,2026-07-08T14:03:42.467616,14.80312658,.00053891,97.9929,187.6798,150.0102,210.1419,0,U,48079,999,28492,.39036486E-4,.245E-5,0
PLEIADES NEO 3,2021-034A,2026-07-08T14:14:30.545376,14.81673803,.00013427,97.8935,264.0525,91.6865,268.4502,0,U,48268,999,28082,.32193429E-4,.201E-5,0
PLEIADES NEO 4,2021-073E,2026-07-08T18:17:36.543264,14.81670290,.0001308,97.8940,264.2149,98.5962,261.5399,0,U,49070,999,26456,.10325E-3,.76E-5,0
LANDSAT 9,2021-088A,2026-07-08T11:37:13.156320,14.57112004,.00011686,98.2272,259.4031,89.8713,270.2619,0,U,49260,999,25410,.61677004E-4,.232E-5,0
CSG-2,2022-008A,2026-07-08T08:25:16.494240,14.82160401,.0001604,97.8898,12.6418,86.1089,274.0307,0,U,51444,999,23972,.57809386E-4,.408E-5,0
GAOFEN-12 03,2022-069A,2026-07-08T14:52:06.989376,14.80067450,.00024954,97.8250,76.9466,79.3926,280.7568,0,U,52912,999,21778,-.3437957E-5,-.77E-6,0
SWOT,2022-173A,2026-07-08T13:37:06.020256,14.00171967,.00002796,77.6104,6.4457,77.2199,282.8984,0,U,54754,999,18214,-.1216853E-5,-.4E-7,0
GAOFEN-12 04,2023-123A,2026-07-08T13:41:12.237792,14.79767018,.00037981,97.9107,107.2704,63.8517,296.3085,0,U,57654,999,15579,.98659045E-4,.691E-5,0
PARS 1,2024-039Q,2026-07-08T13:04:57.968832,15.46186837,.00105925,97.4833,171.1451,48.4608,311.7548,0,U,59065,999,13194,.1595366E-3,.7753E-4,0
RESURS-P 4,2024-061A,2026-07-08T13:17:17.880288,15.32254308,.00032087,97.2754,137.0824,99.4839,260.6766,0,U,59371,999,12703,.66460391E-4,.1994E-4,0
LEGION 1,2024-081A,2026-07-08T12:52:10.224480,15.16815539,.00077952,97.5010,267.1665,297.4452,62.5988,0,U,59625,999,12077,.12036424E-3,.2299E-4,0
LEGION 2,2024-081B,2026-07-08T12:00:47.399040,15.16793726,.00098801,97.5010,267.2282,259.9082,100.1037,0,U,59626,999,12077,.13768086E-3,.2639E-4,0
ALOS-4 (DAICHI-4),2024-123A,2026-07-08T12:43:56.358624,14.79469372,.00016203,97.9220,286.4001,98.2738,261.8658,0,U,60182,999,10903,.16492652E-3,.118E-4,0
LEGION 3,2024-146A,2026-07-08T13:08:50.669952,15.15628281,.00087672,45.0018,276.0185,299.5514,60.4490,0,U,60452,999,10526,.11639709E-3,.1987E-4,0
LEGION 4,2024-146B,2026-07-08T13:09:19.869696,15.16207118,.00114922,45.0025,7.8901,70.1818,290.0298,0,U,60453,999,10411,.16525468E-3,.2985E-4,0
SENTINEL-2C,2024-157A,2026-07-08T12:01:45.184224,14.30814447,.00009403,98.5685,263.9811,97.1420,262.9870,0,U,60989,999,9603,.39985087E-4,.61E-6,0
IONOSFERA-M 1,2024-199A,2026-07-08T13:44:53.828736,14.22758186,.00022135,98.7146,62.5166,81.5400,278.6029,0,U,61735,999,13074,.335019E-4,.31E-6,0
