GAOFEN-11 01            
1 43585U 18063A   26189.59415447  .00012889  00000+0  18718-3 0  9993
2 43585  97.1276 256.4206 0002389 231.5701 128.5341 15.55927931443670
ICESAT-2                
1 43613U 18070A   26189.56682191  .00006904  00000+0  25063-3 0  9994
2 43613  92.0084 296.7565 0005906  79.3539 280.8375 15.28271939435729
HYSIS                   
1 43719U 18096A   26189.52776372  .00000577  00000+0  85874-4 0  9997
2 43719  97.9826 256.1080 0001846  86.6964 273.4459 14.78661597410572
KAZSTSAT                
1 43783U 18099AB  26189.31216530  .00001359  00000+0  11394-3 0  9997
2 43783  97.4314 220.2864 0007847   7.0767 353.0566 14.99942577414477
SAUDISAT 5A             
1 43831U 18102A   26189.57696148  .00003576  00000+0  13232-3 0  9997
2 43831  97.3057 250.7470 0010938  64.3255 295.9114 15.28274477418947
SAUDISAT 5B             
1 43833U 18102C   26189.59228910  .00003588  00000+0  13172-3 0  9995
2 43833  97.3165 253.8706 0011686  65.8144 294.4316 15.28521389419068
GAOFEN-10R              
1 44622U 19066A   26189.60931282  .00000862  00000+0  11269-3 0  9994
2 44622  98.0505 143.3452 0007119  70.0979 290.1001 14.83047943365559
CARTOSAT-3              
1 44804U 19081A   26189.56295521  .00002607  00000+0  12653-3 0  9994
2 44804  97.4294 251.0848 0013376  81.6250 278.6501 15.19295264366713
GAOFEN-12 01            
1 44819U 19082A   26189.57254787  .00000265  00000+0  41290-4 0  9999
2 44819  97.8105 195.3878 0001331  52.3715 307.7618 14.80476009357253
CSG-1                   
1 44873U 19092A   26189.51970936  .00000259  00000+0  39105-4 0  9990
2 44873  97.8893  12.8137 0001490  91.0502 269.0882 14.82147541354638
NEMO-HD                 
1 46277U 20061F   26189.57043841  .00007045  00000+0  15109-3 0  9997
2 46277  97.1907 251.3119 0001175  80.4573 279.6809 15.45039496325281
SENTINEL-6A             
1 46984U 20086A   26189.47828981 -.00000065  00000+0 -18875-4 0  9995
2 46984  66.0415  90.8320 0007814 270.0000  90.0119 12.80930103263059
CAS500-1                
1 47932U 21022A   26189.58763973  .00004290  00000+0  20151-3 0  9992
2 47932  97.3874  84.4053 0004461 191.6522 168.4611 15.20133614294019
GAOFEN-12 02            
1 48079U 21026A   26189.58590819  .00000245  00000+0  39036-4 0  9995
2 48079  97.9929 187.6798 0005389 150.0102 210.1419 14.80312658284926
PLEIADES NEO 3          
1 48268U 21034A   26189.59340909  .00000201  00000+0  32193-4 0  9997
2 48268  97.8935 264.0525 0001342  91.6865 268.4502 14.81673803280828
PLEIADES NEO 4          
1 49070U 21073E   26189.76222851  .00000760  00000+0  10325-3 0  9998
2 49070  97.8940 264.2149 0001308  98.5962 261.5399 14.81670290264564
LANDSAT 9               
1 49260U 21088A   26189.48418005  .00000232  00000+0  61677-4 0  9993
2 49260  98.2272 259.4031 0001168  89.8713 270.2619 14.57112004254103
CSG-2                   
1 51444U 22008A   26189.35088535  .00000408  00000+0  57809-4 0  9997
2 51444  97.8898  12.6418 0001604  86.1089 274.0307 14.82160401239727
GAOFEN-12 03            
1 52912U 22069A   26189.61952534 -.00000077  00000+0 -34380-5 0  9997
2 52912  97.8250  76.9466 0002495  79.3926 280.7568 14.80067450217782
SWOT                    
1 54754U 22173A   26189.56743079 -.00000004  00000+0 -12169-5 0  9996
2 54754  77.6104   6.4457 0000279  77.2199 282.8984 14.00171967182144
GAOFEN-12 04            
1 57654U 23123A   26189.57028053  .00000691  00000+0  98659-4 0  9990
2 57654  97.9107 107.2704 0003798  63.8517 296.3085 14.79767018155790
PARS 1                  
1 59065U 24039Q   26189.54511538  .00007753  00000+0  15954-3 0  9999
2 59065  97.4833 171.1451 0010592  48.4608 311.7548 15.46186837131944
RESURS-P 4              
1 59371U 24061A   26189.55367917  .00001994  00000+0  66460-4 0  9995
2 59371  97.2754 137.0824 0003208  99.4839 260.6766 15.32254308127030
LEGION 1                
1 59625U 24081A   26189.53622945  .00002299  00000+0  12036-3 0  9990
2 59625  97.5010 267.1665 0007795 297.4452  62.5988 15.16815539120774
LEGION 2                
1 59626U 24081B   26189.50054860  .00002639  00000+0  13768-3 0  9994
2 59626  97.5010 267.2282 0009880 259.9082 100.1037 15.16793726120777
ALOS-4 (DAICHI-4)       
1 60182U 24123A   26189.53051341  .00001180  00000+0  16493-3 0  9992
2 60182  97.9220 286.4001 0001620  98.2738 261.8658 14.79469372109036
LEGION 3                
1 60452U 24146A   26189.54780868  .00001987  00000+0  11640-3 0  9995
2 60452  45.0018 276.0185 0008767 299.5514  60.4490 15.15628281105265
LEGION 4                
1 60453U 24146B   26189.54814664  .00002985  00000+0  16525-3 0  9994
2 60453  45.0025   7.8901 0011492  70.1818 290.0298 15.16207118104112
SENTINEL-2C             
1 60989U 24157A   26189.50121741  .00000061  00000+0  39985-4 0  9992
2 60989  98.5685 263.9811 0000940  97.1420 262.9870 14.30814447 96039
IONOSFERA-M 1           
1 61735U 24199A   26189.57284524  .00000031  00000+0  33502-4 0  9990
2 61735  98.7146  62.5166 0002213  81.5400 278.6029 14.22758186130744
